NORAD_CAT_ID,OBJECT_NAME,OBJECT_TYPE,EPOCH,MEAN_MOTION,ECCENTRICITY,INCLINATION,RA_OF_ASC_NODE,ARG_OF_PERICENTER,MEAN_ANOMALY,BSTAR,MEAN_MOTION_DOT,MEAN_MOTION_DDOT,TLE_LINE0,TLE_LINE1,TLE_LINE2,SEMIMAJOR_AXIS,PERIOD,APOGEE,PERIGEE,DECAYED
53557.0,STARLINK-4502,PAYLOAD,2024-08-17 22:12:39,15.08839455,0.0001229,53.2164,97.402,95.6947,264.4185,0.0003822,5.8e-05,0.0,0 STARLINK-4502,1 53557U 22101AG  24230.92545656  .00005800  00000-0  38220-3 0  9995,2 53557  53.2164  97.4020 0001229  95.6947 264.4185 15.08839455110442,6917.882,95.438,540.597,538.897,0.0
53557.0,STARLINK-4502,PAYLOAD,2024-08-18 20:28:03,15.08845629,0.000122,53.2162,93.2386,98.0194,262.0937,0.00028037,4.178e-05,0.0,0 STARLINK-4502,1 53557U 22101AG  24231.85281472  .00004178  00000-0  28037-3 0  9993,2 53557  53.2162  93.2386 0001220  98.0194 262.0937 15.08845629111238,6917.863,95.437,540.572,538.884,0.0
53557.0,STARLINK-4502,PAYLOAD,2024-08-18 23:38:49,15.0884779,0.0001221,53.2163,92.644,97.8683,262.2448,0.00030087,4.505e-05,0.0,0 STARLINK-4502,1 53557U 22101AG  24231.98529363  .00004505  00000-0  30087-3 0  9993,2 53557  53.2163  92.6440 0001221  97.8683 262.2448 15.08847790110604,6917.857,95.437,540.566,538.877,0.0
53557.0,STARLINK-4502,PAYLOAD,2024-08-19 07:35:44,15.08856994,0.0001152,53.2158,91.1582,87.4055,272.7069,0.00042586,6.499e-05,0.0,0 STARLINK-4502,1 53557U 22101AG  24232.31648885  .00006499  00000-0  42586-3 0  9993,2 53557  53.2158  91.1582 0001152  87.4055 272.7069 15.08856994111309,6917.828,95.436,540.49,538.897,0.0
53557.0,STARLINK-4502,PAYLOAD,2024-08-19 23:29:36,15.08836739,0.0001393,53.2158,88.1835,84.683,275.4321,-1.4963e-05,-5.26e-06,0.0,0 STARLINK-4502,1 53557U 22101AG  24232.97889696 -.00000526  00000-0 -14963-4 0  9998,2 53557  53.2158  88.1835 0001393  84.6830 275.4321 15.08836739110757,6917.89,95.438,540.719,538.792,0.0
53557.0,STARLINK-4502,PAYLOAD,2024-08-20 07:26:32,15.08844773,0.000134,53.2156,86.6971,87.4268,272.6878,0.00020566,2.987e-05,0.0,0 STARLINK-4502,1 53557U 22101AG  24233.31009500  .00002987  00000-0  20566-3 0  9991,2 53557  53.2156  86.6971 0001340  87.4268 272.6878 15.08844773111458,6917.866,95.437,540.658,538.804,0.0
53557.0,STARLINK-4502,PAYLOAD,2024-08-20 21:45:00,15.08844115,0.0001432,53.2151,84.0211,84.1471,275.9684,0.0004385,6.698e-05,0.0,0 STARLINK-4502,1 53557U 22101AG  24233.90625744  .00006698  00000-0  43850-3 0  9994,2 53557  53.2151  84.0211 0001432  84.1471 275.9684 15.08844115110892,6917.868,95.437,540.723,538.742,0.0
53557.0,STARLINK-4502,PAYLOAD,2024-08-21 18:25:01,15.08844736,0.0001467,53.2149,80.1544,84.7161,275.3999,0.00027704,4.124e-05,0.0,0 STARLINK-4502,1 53557U 22101AG  24234.76737742  .00004124  00000-0  27704-3 0  9993,2 53557  53.2149  80.1544 0001467  84.7161 275.3999 15.08844736111023,6917.866,95.437,540.746,538.716,0.0
53557.0,STARLINK-4502,PAYLOAD,2024-08-21 20:00:24,15.08839591,0.0001402,53.2149,79.8555,88.2526,271.8627,0.00032596,4.903e-05,0.0,0 STARLINK-4502,1 53557U 22101AG  24234.83361932  .00004903  00000-0  32596-3 0  9995,2 53557  53.2149  79.8555 0001402  88.2526 271.8627 15.08839591111687,6917.882,95.438,540.717,538.777,0.0
